IRIDIUM 126             
1 42809U 17039G   24305.83715463  .00000987  00000+0  34546-3 0  9992
2 42809  86.3973 241.5459 0002327  90.7365 269.4097 14.34223920384917
IRIDIUM 124             
1 42810U 17039H   24305.58040812  .00001230  00000+0  35989-3 0  9999
2 42810  86.4549 178.4897 0002231  75.2384 284.9064 14.43265005389490
IRIDIUM 128             
1 42811U 17039J   24305.82789551  .00001168  00000+0  41011-3 0  9990
2 42811  86.3925 273.0843 0002348  89.7221 270.4244 14.34215316384934
IRIDIUM 121             
1 42812U 17039K   24305.85619070  .00002108  00000+0  74562-3 0  9994
2 42812  86.3978 241.5611 0002247  82.3129 277.8322 14.34217040384901
IRIDIUM 133             
1 42955U 17061A   24305.44099815  .00000397  00000+0  13452-3 0  9990
2 42955  86.3922 273.3492 0002173  87.7828 272.3616 14.34220579369675
IRIDIUM 100             
1 42956U 17061B   24305.36488283  .00001365  00000+0  48012-3 0  9999
2 42956  86.3924 273.3136 0002430  85.5382 274.6091 14.34225967369667
IRIDIUM 122             
1 42957U 17061C   24305.89132569  .00000572  00000+0  19725-3 0  9999
2 42957  86.3920 273.0912 0002453  88.8267 271.3210 14.34213748369746
IRIDIUM 129             
1 42958U 17061D   24305.77715537  .00000355  00000+0  11964-3 0  9995
2 42958  86.3925 273.2002 0002126  90.9354 269.2085 14.34211772369743
